[{"OBJECT_NAME":"STARLINK-4660","OBJECT_ID":"2022-104X","EPOCH":"2026-02-05T06:15:24.685632","MEAN_MOTION":15.08836065,"ECCENTRICITY":0.0001356,"INCLINATION":53.2181,"RA_OF_ASC_NODE":24.4012,"ARG_OF_PERICENTER":92.8796,"MEAN_ANOMALY":267.2351,"EPHEMERIS_TYPE":0,"CLASSIFICATION_TYPE":"U","NORAD_CAT_ID":53609,"ELEMENT_SET_NO":999,"REV_AT_EPOCH":19079,"BSTAR":4.7601e-5,"MEAN_MOTION_DOT":4.7e-6,"MEAN_MOTION_DDOT":0},{"OBJECT_NAME":"STARLINK-4610","OBJECT_ID":"2022-104Y","EPOCH":"2026-02-05T15:10:05.275200","MEAN_MOTION":15.08838399,"ECCENTRICITY":0.0001804,"INCLINATION":53.2193,"RA_OF_ASC_NODE":18.1562,"ARG_OF_PERICENTER":91.0798,"MEAN_ANOMALY":269.0401,"EPHEMERIS_TYPE":0,"CLASSIFICATION_TYPE":"U","NORAD_CAT_ID":53610,"ELEMENT_SET_NO":999,"REV_AT_EPOCH":19079,"BSTAR":6.1682e-5,"MEAN_MOTION_DOT":6.94e-6,"MEAN_MOTION_DDOT":0},{"OBJECT_NAME":"STARLINK-4658","OBJECT_ID":"2022-104AA","EPOCH":"2026-02-05T08:41:49.083360","MEAN_MOTION":15.08862715,"ECCENTRICITY":0.0001518,"INCLINATION":53.2193,"RA_OF_ASC_NODE":19.3185,"ARG_OF_PERICENTER":86.313,"MEAN_ANOMALY":273.8036,"EPHEMERIS_TYPE":0,"CLASSIFICATION_TYPE":"U","NORAD_CAT_ID":53612,"ELEMENT_SET_NO":999,"REV_AT_EPOCH":19075,"BSTAR":0.00020538013,"MEAN_MOTION_DOT":2.984e-5,"MEAN_MOTION_DDOT":0},{"OBJECT_NAME":"STARLINK-4655","OBJECT_ID":"2022-104AB","EPOCH":"2026-02-05T05:41:42.047808","MEAN_MOTION":15.08836068,"ECCENTRICITY":0.0001244,"INCLINATION":53.2196,"RA_OF_ASC_NODE":19.9587,"ARG_OF_PERICENTER":95.7859,"MEAN_ANOMALY":264.3275,"EPHEMERIS_TYPE":0,"CLASSIFICATION_TYPE":"U","NORAD_CAT_ID":53613,"ELEMENT_SET_NO":999,"REV_AT_EPOCH":19073,"BSTAR":4.7967e-5,"MEAN_MOTION_DOT":4.76e-6,"MEAN_MOTION_DDOT":0},{"OBJECT_NAME":"STARLINK-4605","OBJECT_ID":"2022-104AE","EPOCH":"2026-02-05T14:59:23.070048","MEAN_MOTION":15.08845458,"ECCENTRICITY":0.0001217,"INCLINATION":53.2179,"RA_OF_ASC_NODE":7.9401,"ARG_OF_PERICENTER":84.243,"MEAN_ANOMALY":275.8701,"EPHEMERIS_TYPE":0,"CLASSIFICATION_TYPE":"U","NORAD_CAT_ID":53616,"ELEMENT_SET_NO":999,"REV_AT_EPOCH":19104,"BSTAR":0.00011577,"MEAN_MOTION_DOT":1.555e-5,"MEAN_MOTION_DDOT":0},{"OBJECT_NAME":"STARLINK-4609","OBJECT_ID":"2022-104AH","EPOCH":"2026-02-05T08:31:14.492640","MEAN_MOTION":15.08841165,"ECCENTRICITY":0.00013409,"INCLINATION":53.2195,"RA_OF_ASC_NODE":19.2694,"ARG_OF_PERICENTER":93.5007,"MEAN_ANOMALY":266.6138,"EPHEMERIS_TYPE":0,"CLASSIFICATION_TYPE":"U","NORAD_CAT_ID":53619,"ELEMENT_SET_NO":999,"REV_AT_EPOCH":19075,"BSTAR":6.4198462e-5,"MEAN_MOTION_DOT":7.34e-6,"MEAN_MOTION_DDOT":0},{"OBJECT_NAME":"STARLINK-4615","OBJECT_ID":"2022-104AJ","EPOCH":"2026-02-05T08:10:01.214976","MEAN_MOTION":15.08842378,"ECCENTRICITY":0.00015198,"INCLINATION":53.2188,"RA_OF_ASC_NODE":19.1794,"ARG_OF_PERICENTER":84.4954,"MEAN_ANOMALY":275.6212,"EPHEMERIS_TYPE":0,"CLASSIFICATION_TYPE":"U","NORAD_CAT_ID":53620,"ELEMENT_SET_NO":999,"REV_AT_EPOCH":19086,"BSTAR":5.0031343e-5,"MEAN_MOTION_DOT":5.08e-6,"MEAN_MOTION_DDOT":0},{"OBJECT_NAME":"STARLINK-4608","OBJECT_ID":"2022-104AK","EPOCH":"2026-02-04T16:32:05.295552","MEAN_MOTION":15.0883383,"ECCENTRICITY":0.00014558,"INCLINATION":53.2186,"RA_OF_ASC_NODE":22.2204,"ARG_OF_PERICENTER":91.4228,"MEAN_ANOMALY":268.6931,"EPHEMERIS_TYPE":0,"CLASSIFICATION_TYPE":"U","NORAD_CAT_ID":53621,"ELEMENT_SET_NO":999,"REV_AT_EPOCH":19065,"BSTAR":4.7879747e-5,"MEAN_MOTION_DOT":4.74e-6,"MEAN_MOTION_DDOT":0},{"OBJECT_NAME":"STARLINK-4568","OBJECT_ID":"2022-104AL","EPOCH":"2026-02-05T15:35:06.951264","MEAN_MOTION":15.08842336,"ECCENTRICITY":0.000136,"INCLINATION":53.2186,"RA_OF_ASC_NODE":17.5603,"ARG_OF_PERICENTER":91.3842,"MEAN_ANOMALY":268.7306,"EPHEMERIS_TYPE":0,"CLASSIFICATION_TYPE":"U","NORAD_CAT_ID":53622,"ELEMENT_SET_NO":999,"REV_AT_EPOCH":19091,"BSTAR":8.9396e-5,"MEAN_MOTION_DOT":1.135e-5,"MEAN_MOTION_DDOT":0},{"OBJECT_NAME":"STARLINK-4573","OBJECT_ID":"2022-104AM","EPOCH":"2026-02-05T08:15:19.827072","MEAN_MOTION":15.08841848,"ECCENTRICITY":0.00014202,"INCLINATION":53.2197,"RA_OF_ASC_NODE":19.2007,"ARG_OF_PERICENTER":91.1069,"MEAN_ANOMALY":269.0086,"EPHEMERIS_TYPE":0,"CLASSIFICATION_TYPE":"U","NORAD_CAT_ID":53623,"ELEMENT_SET_NO":999,"REV_AT_EPOCH":19086,"BSTAR":5.2040061e-5,"MEAN_MOTION_DOT":5.4e-6,"MEAN_MOTION_DDOT":0},{"OBJECT_NAME":"STARLINK-4596","OBJECT_ID":"2022-104AN","EPOCH":"2026-02-05T07:59:24.765792","MEAN_MOTION":15.08864051,"ECCENTRICITY":0.00017018,"INCLINATION":53.2204,"RA_OF_ASC_NODE":19.1369,"ARG_OF_PERICENTER":110.2166,"MEAN_ANOMALY":249.9009,"EPHEMERIS_TYPE":0,"CLASSIFICATION_TYPE":"U","NORAD_CAT_ID":53624,"ELEMENT_SET_NO":999,"REV_AT_EPOCH":19086,"BSTAR":-0.00049008601,"MEAN_MOTION_DOT":-8.085e-5,"MEAN_MOTION_DDOT":0},{"OBJECT_NAME":"STARLINK-4554","OBJECT_ID":"2022-104AQ","EPOCH":"2026-02-05T15:40:26.360832","MEAN_MOTION":15.08829148,"ECCENTRICITY":0.0001672,"INCLINATION":53.2212,"RA_OF_ASC_NODE":17.5814,"ARG_OF_PERICENTER":97.633,"MEAN_ANOMALY":262.4852,"EPHEMERIS_TYPE":0,"CLASSIFICATION_TYPE":"U","NORAD_CAT_ID":53626,"ELEMENT_SET_NO":999,"REV_AT_EPOCH":19092,"BSTAR":-3.4182e-5,"MEAN_MOTION_DOT":-8.32e-6,"MEAN_MOTION_DDOT":0},{"OBJECT_NAME":"STARLINK-4595","OBJECT_ID":"2022-104AR","EPOCH":"2026-02-05T07:54:06.260832","MEAN_MOTION":15.08849381,"ECCENTRICITY":0.0001275,"INCLINATION":53.2172,"RA_OF_ASC_NODE":19.1087,"ARG_OF_PERICENTER":89.3206,"MEAN_ANOMALY":270.7933,"EPHEMERIS_TYPE":0,"CLASSIFICATION_TYPE":"U","NORAD_CAT_ID":53627,"ELEMENT_SET_NO":999,"REV_AT_EPOCH":19087,"BSTAR":-3.0807649e-5,"MEAN_MOTION_DOT":-7.78e-6,"MEAN_MOTION_DDOT":0},{"OBJECT_NAME":"STARLINK-4600","OBJECT_ID":"2022-104AS","EPOCH":"2026-02-05T15:29:48.582816","MEAN_MOTION":15.08834722,"ECCENTRICITY":0.0001351,"INCLINATION":53.2184,"RA_OF_ASC_NODE":17.5345,"ARG_OF_PERICENTER":94.285,"MEAN_ANOMALY":265.8296,"EPHEMERIS_TYPE":0,"CLASSIFICATION_TYPE":"U","NORAD_CAT_ID":53628,"ELEMENT_SET_NO":999,"REV_AT_EPOCH":19092,"BSTAR":4.5177e-5,"MEAN_MOTION_DOT":4.31e-6,"MEAN_MOTION_DDOT":0},{"OBJECT_NAME":"STARLINK-4602","OBJECT_ID":"2022-104AT","EPOCH":"2026-02-05T15:45:43.496352","MEAN_MOTION":15.08842759,"ECCENTRICITY":0.0001455,"INCLINATION":53.219,"RA_OF_ASC_NODE":17.6015,"ARG_OF_PERICENTER":89.0082,"MEAN_ANOMALY":271.1076,"EPHEMERIS_TYPE":0,"CLASSIFICATION_TYPE":"U","NORAD_CAT_ID":53629,"ELEMENT_SET_NO":999,"REV_AT_EPOCH":19092,"BSTAR":7.3873e-5,"MEAN_MOTION_DOT":8.88e-6,"MEAN_MOTION_DDOT":0},{"OBJECT_NAME":"STARLINK-4598","OBJECT_ID":"2022-104AU","EPOCH":"2026-02-05T15:00:48.098880","MEAN_MOTION":15.08844098,"ECCENTRICITY":0.00014,"INCLINATION":53.2208,"RA_OF_ASC_NODE":8.1368,"ARG_OF_PERICENTER":91.1646,"MEAN_ANOMALY":268.9506,"EPHEMERIS_TYPE":0,"CLASSIFICATION_TYPE":"U","NORAD_CAT_ID":53630,"ELEMENT_SET_NO":999,"REV_AT_EPOCH":19122,"BSTAR":0.00010289,"MEAN_MOTION_DOT":1.35e-5,"MEAN_MOTION_DDOT":0},{"OBJECT_NAME":"STARLINK-4599","OBJECT_ID":"2022-104AV","EPOCH":"2026-02-05T15:24:30.026880","MEAN_MOTION":15.08841204,"ECCENTRICITY":0.0001258,"INCLINATION":53.2191,"RA_OF_ASC_NODE":17.515,"ARG_OF_PERICENTER":95.0381,"MEAN_ANOMALY":265.0755,"EPHEMERIS_TYPE":0,"CLASSIFICATION_TYPE":"U","NORAD_CAT_ID":53631,"ELEMENT_SET_NO":999,"REV_AT_EPOCH":19092,"BSTAR":3.8955e-5,"MEAN_MOTION_DOT":3.32e-6,"MEAN_MOTION_DDOT":0}]
