STARLINK-4660           
1 53609U 22104X   26036.26070238  .00000470  00000+0  47601-4 0  9999
2 53609  53.2181  24.4012 0001356  92.8796 267.2351 15.08836065190798
STARLINK-4610           
1 53610U 22104Y   26036.63200550  .00000694  00000+0  61682-4 0  9997
2 53610  53.2193  18.1562 0001804  91.0798 269.0401 15.08838399190792
STARLINK-4658           
1 53612U 22104AA  26036.36237365  .00002984  00000+0  20538-3 0  9991
2 53612  53.2193  19.3185 0001518  86.3130 273.8036 15.08862715190759
STARLINK-4655           
1 53613U 22104AB  26036.23729222  .00000476  00000+0  47967-4 0  9996
2 53613  53.2196  19.9587 0001244  95.7859 264.3275 15.08836068190733
STARLINK-4605           
1 53616U 22104AE  26036.62457257  .00001555  00000+0  11577-3 0  9994
2 53616  53.2179   7.9401 0001217  84.2430 275.8701 15.08845458191046
STARLINK-4609           
1 53619U 22104AH  26036.35502885  .00000734  00000+0  64198-4 0  9991
2 53619  53.2195  19.2694 0001340  93.5007 266.6138 15.08841165190757
STARLINK-4615           
1 53620U 22104AJ  26036.34029184  .00000508  00000+0  50031-4 0  9998
2 53620  53.2188  19.1794 0001519  84.4954 275.6212 15.08842378190861
STARLINK-4608           
1 53621U 22104AK  26035.68895018  .00000474  00000+0  47880-4 0  9992
2 53621  53.2186  22.2204 0001455  91.4228 268.6931 15.08833830190652
STARLINK-4568           
1 53622U 22104AL  26036.64938601  .00001135  00000+0  89396-4 0  9999
2 53622  53.2186  17.5603 0001360  91.3842 268.7306 15.08842336190916
STARLINK-4573           
1 53623U 22104AM  26036.34397948  .00000540  00000+0  52040-4 0  9995
2 53623  53.2197  19.2007 0001420  91.1069 269.0086 15.08841848190862
STARLINK-4596           
1 53624U 22104AN  26036.33292553 -.00008085  00000+0 -49009-3 0  9995
2 53624  53.2204  19.1369 0001701 110.2166 249.9009 15.08864051190868
STARLINK-4554           
1 53626U 22104AQ  26036.65308288 -.00000832  00000+0 -34182-4 0  9994
2 53626  53.2212  17.5814 0001672  97.6330 262.4852 15.08829148190925
STARLINK-4595           
1 53627U 22104AR  26036.32923913 -.00000778  00000+0 -30808-4 0  9997
2 53627  53.2172  19.1087 0001275  89.3206 270.7933 15.08849381190877
STARLINK-4600           
1 53628U 22104AS  26036.64570119  .00000431  00000+0  45177-4 0  9998
2 53628  53.2184  17.5345 0001351  94.2850 265.8296 15.08834722190921
STARLINK-4602           
1 53629U 22104AT  26036.65675343  .00000888  00000+0  73873-4 0  9995
2 53629  53.2190  17.6015 0001455  89.0082 271.1076 15.08842759190923
STARLINK-4598           
1 53630U 22104AU  26036.62555670  .00001350  00000+0  10289-3 0  9990
2 53630  53.2208   8.1368 0001400  91.1646 268.9506 15.08844098191225
STARLINK-4599           
1 53631U 22104AV  26036.64201420  .00000332  00000+0  38955-4 0  9994
2 53631  53.2191  17.5150 0001258  95.0381 265.0755 15.08841204190926
